OBJECT_NAME,OBJECT_ID,EPOCH,MEAN_MOTION,ECCENTRICITY,INCLINATION,RA_OF_ASC_NODE,ARG_OF_PERICENTER,MEAN_ANOMALY,EPHEMERIS_TYPE,CLASSIFICATION_TYPE,NORAD_CAT_ID,ELEMENT_SET_NO,REV_AT_EPOCH,BSTAR,MEAN_MOTION_DOT,MEAN_MOTION_DDOT
STARLINK-37503,2026-117AA,2026-06-04T06:00:04.000320,16.08932431,.00002506,53.1583,308.6287,83.7239,349.9963,0,U,69262,999,209,-.17815925E-2,-.1602663E-1,.87233539E-3
STARLINK-37502,2026-117AB,2026-06-04T06:00:04.000320,16.09383223,.00001083,53.1582,308.6208,358.9601,78.4402,0,U,69263,999,209,-.16485177E-2,-.1527969E-1,.80293653E-3
STARLINK-37486,2026-117AC,2026-06-04T06:00:04.000320,16.09854844,.00003226,53.1580,308.6110,108.8261,333.4606,0,U,69264,999,209,-.16901296E-2,-.1614338E-1,.89487109E-3
STARLINK-37435,2026-117AD,2026-06-04T06:00:04.000320,16.10157778,.00000914,53.1581,308.6013,114.7381,331.7582,0,U,69265,999,209,-.15827805E-2,-.1543141E-1,.82603061E-3
STARLINK-37464,2026-117AE,2026-06-04T06:00:04.000320,16.10561419,.0000244,53.1580,308.5922,97.1749,353.7995,0,U,69266,999,209,-.15098364E-2,-.1512232E-1,.7997873E-3
KUIPER-00282,2026-118A,2026-06-04T06:00:04.000320,15.35312718,.00120328,51.8581,115.9049,138.4662,140.3365,0,U,69267,999,136,.12073283E-2,.41978E-3,0
KUIPER-00383,2026-118B,2026-06-04T06:00:04.000320,15.35745838,.00109725,51.8584,115.8901,134.1980,151.8089,0,U,69268,999,142,.1139956E-2,.40146E-3,0
KUIPER-00527,2026-118C,2026-06-04T06:00:04.000320,15.36098302,.00097706,51.8609,115.8744,128.5995,164.9428,0,U,69269,999,130,.11132745E-2,.39628E-3,0
KUIPER-00562,2026-118D,2026-06-04T06:00:04.000320,15.38299149,.00021518,51.8711,115.7760,79.1314,255.0708,0,U,69270,999,195,.11626119E-2,.44446E-3,0
KUIPER-00570,2026-118E,2026-06-04T06:00:04.000320,15.35656796,.00106538,51.8570,115.8873,138.3132,149.1833,0,U,69271,999,154,.11379673E-2,.39955E-3,0
KUIPER-00572,2026-118F,2026-06-04T06:00:04.000320,15.36669883,.00074364,51.8665,115.8513,123.1062,180.4016,0,U,69272,999,130,.11319168E-2,.41034E-3,0
KUIPER-00581,2026-118G,2026-06-04T06:00:04.000320,15.36351072,.0008971,51.8645,115.8650,127.5676,169.9251,0,U,69273,999,208,.10995146E-2,.39445E-3,0
KUIPER-00584,2026-118H,2026-06-04T06:00:04.000320,15.35305806,.00116623,51.8599,115.8972,139.1299,143.3302,0,U,69274,999,130,.11076118E-2,.38447E-3,0
KUIPER-00587,2026-118J,2026-06-04T06:00:04.000320,15.36358630,.00085142,51.8620,115.8595,127.5593,173.2495,0,U,69275,999,130,.92970708E-3,.3327E-3,0
KUIPER-00590,2026-118K,2026-06-04T06:00:04.000320,15.37553599,.00044719,51.8677,115.8159,110.3417,209.8236,0,U,69276,999,184,.10776856E-2,.40163E-3,0
KUIPER-00592,2026-118L,2026-06-04T06:00:04.000320,15.37763838,.00040363,51.8698,115.8043,90.8367,233.1930,0,U,69277,999,130,.11477222E-2,.43108E-3,0
KUIPER-00593,2026-118M,2026-06-04T06:00:04.000320,15.37663802,.00041841,51.8703,115.8023,106.9046,217.2841,0,U,69278,999,205,.12525294E-2,.46952E-3,0
KUIPER-00594,2026-118N,2026-06-04T06:00:04.000320,15.38479784,.00015555,51.8709,115.7721,51.0281,287.0495,0,U,69279,999,130,.11187226E-2,.42998E-3,0
KUIPER-00595,2026-118P,2026-06-04T06:00:04.000320,15.38335497,.00022081,51.8703,115.7837,82.2855,251.4116,0,U,69280,999,202,.10804747E-2,.4131E-3,0
KUIPER-00596,2026-118Q,2026-06-04T06:00:04.000320,15.35491712,.00118366,51.8547,115.8966,136.8081,145.9218,0,U,69281,999,130,.11201907E-2,.39128E-3,0
KUIPER-00597,2026-118R,2026-06-04T06:00:04.000320,15.36885591,.00074466,51.8640,115.8417,124.4239,184.6670,0,U,69282,999,130,.10856057E-2,.39608E-3,0
KUIPER-00599,2026-118S,2026-06-04T06:00:04.000320,15.37036833,.00064507,51.8682,115.8332,116.1515,195.2915,0,U,69283,999,130,.10792964E-2,.39561E-3,0
KUIPER-00600,2026-118T,2026-06-04T06:00:04.000320,15.36600875,.00088016,51.8632,115.8581,124.0868,177.0892,0,U,69284,999,187,.10907996E-2,.39446E-3,0
KUIPER-00601,2026-118U,2026-06-04T06:00:04.000320,15.37357513,.00050808,51.8694,115.8208,110.3218,206.1769,0,U,69285,999,190,.12646366E-2,.46944E-3,0
KUIPER-00602,2026-118V,2026-06-04T06:00:04.000320,15.37799391,.00033713,51.8692,115.8003,98.0998,228.6807,0,U,69286,999,130,.11259802E-2,.42326E-3,0
KUIPER-00603,2026-118W,2026-06-04T06:00:04.000320,15.37219019,.00057628,51.8662,115.8285,112.2172,202.6743,0,U,69287,999,185,.11083617E-2,.40881E-3,0
KUIPER-00605,2026-118X,2026-06-04T06:00:04.000320,15.36768195,.0007796,51.8652,115.8486,117.4466,187.8872,0,U,69288,999,169,.11216044E-2,.40788E-3,0
KUIPER-00606,2026-118Y,2026-06-04T06:00:04.000320,15.37457463,.00048647,51.8686,115.8161,104.8669,214.5576,0,U,69289,999,154,.11166694E-2,.41509E-3,0
KUIPER-00607,2026-118Z,2026-06-04T06:00:04.000320,15.37136736,.00065681,51.8671,115.8305,110.7778,202.5983,0,U,69290,999,150,.1115732E-2,.41052E-3,0
KUIPER-00608,2026-118AA,2026-06-04T06:00:04.000320,15.36143528,.00094447,51.8595,115.8701,132.6700,163.2088,0,U,69291,999,147,.12651364E-2,.45182E-3,0
