STARLINK-37503          
1 69262U 26117AA  26155.25004630 -.01602663  87234-3 -17816-2 0  9999
2 69262  53.1583 308.6287 0000250  83.7239 349.9963 16.08932431  2096
STARLINK-37502          
1 69263U 26117AB  26155.25004630 -.01527969  80294-3 -16485-2 0  9995
2 69263  53.1582 308.6208 0000108 358.9601  78.4402 16.09383223  2093
STARLINK-37486          
1 69264U 26117AC  26155.25004630 -.01614338  89487-3 -16901-2 0  9999
2 69264  53.1580 308.6110 0000322 108.8261 333.4606 16.09854844  2098
STARLINK-37435          
1 69265U 26117AD  26155.25004630 -.01543141  82603-3 -15828-2 0  9993
2 69265  53.1581 308.6013 0000091 114.7381 331.7582 16.10157778  2092
STARLINK-37464          
1 69266U 26117AE  26155.25004630 -.01512232  79979-3 -15098-2 0  9992
2 69266  53.1580 308.5922 0000244  97.1749 353.7995 16.10561419  2095
KUIPER-00282            
1 69267U 26118A   26155.25004630  .00041978  00000+0  12073-2 0  9990
2 69267  51.8581 115.9049 0012032 138.4662 140.3365 15.35312718  1365
KUIPER-00383            
1 69268U 26118B   26155.25004630  .00040146  00000+0  11400-2 0  9990
2 69268  51.8584 115.8901 0010972 134.1980 151.8089 15.35745838  1422
KUIPER-00527            
1 69269U 26118C   26155.25004630  .00039628  00000+0  11133-2 0  9997
2 69269  51.8609 115.8744 0009770 128.5995 164.9428 15.36098302  1300
KUIPER-00562            
1 69270U 26118D   26155.25004630  .00044446  00000+0  11626-2 0  9990
2 69270  51.8711 115.7760 0002151  79.1314 255.0708 15.38299149  1953
KUIPER-00570            
1 69271U 26118E   26155.25004630  .00039955  00000+0  11380-2 0  9997
2 69271  51.8570 115.8873 0010653 138.3132 149.1833 15.35656796  1544
KUIPER-00572            
1 69272U 26118F   26155.25004630  .00041034  00000+0  11319-2 0  9991
2 69272  51.8665 115.8513 0007436 123.1062 180.4016 15.36669883  1307
KUIPER-00581            
1 69273U 26118G   26155.25004630  .00039445  00000+0  10995-2 0  9994
2 69273  51.8645 115.8650 0008971 127.5676 169.9251 15.36351072  2089
KUIPER-00584            
1 69274U 26118H   26155.25004630  .00038447  00000+0  11076-2 0  9997
2 69274  51.8599 115.8972 0011662 139.1299 143.3302 15.35305806  1306
KUIPER-00587            
1 69275U 26118J   26155.25004630  .00033270  00000+0  92971-3 0  9991
2 69275  51.8620 115.8595 0008514 127.5593 173.2495 15.36358630  1302
KUIPER-00590            
1 69276U 26118K   26155.25004630  .00040163  00000+0  10777-2 0  9994
2 69276  51.8677 115.8159 0004471 110.3417 209.8236 15.37553599  1844
KUIPER-00592            
1 69277U 26118L   26155.25004630  .00043108  00000+0  11477-2 0  9995
2 69277  51.8698 115.8043 0004036  90.8367 233.1930 15.37763838  1304
KUIPER-00593            
1 69278U 26118M   26155.25004630  .00046952  00000+0  12525-2 0  9991
2 69278  51.8703 115.8023 0004184 106.9046 217.2841 15.37663802  2054
KUIPER-00594            
1 69279U 26118N   26155.25004630  .00042998  00000+0  11187-2 0  9991
2 69279  51.8709 115.7721 0001555  51.0281 287.0495 15.38479784  1307
KUIPER-00595            
1 69280U 26118P   26155.25004630  .00041310  00000+0  10805-2 0  9996
2 69280  51.8703 115.7837 0002208  82.2855 251.4116 15.38335497  2027
KUIPER-00596            
1 69281U 26118Q   26155.25004630  .00039128  00000+0  11202-2 0  9993
2 69281  51.8547 115.8966 0011836 136.8081 145.9218 15.35491712  1302
KUIPER-00597            
1 69282U 26118R   26155.25004630  .00039608  00000+0  10856-2 0  9991
2 69282  51.8640 115.8417 0007446 124.4239 184.6670 15.36885591  1303
KUIPER-00599            
1 69283U 26118S   26155.25004630  .00039561  00000+0  10793-2 0  9990
2 69283  51.8682 115.8332 0006450 116.1515 195.2915 15.37036833  1303
KUIPER-00600            
1 69284U 26118T   26155.25004630  .00039446  00000+0  10908-2 0  9991
2 69284  51.8632 115.8581 0008801 124.0868 177.0892 15.36600875  1872
KUIPER-00601            
1 69285U 26118U   26155.25004630  .00046944  00000+0  12646-2 0  9994
2 69285  51.8694 115.8208 0005080 110.3218 206.1769 15.37357513  1900
KUIPER-00602            
1 69286U 26118V   26155.25004630  .00042326  00000+0  11260-2 0  9996
2 69286  51.8692 115.8003 0003371  98.0998 228.6807 15.37799391  1300
KUIPER-00603            
1 69287U 26118W   26155.25004630  .00040881  00000+0  11084-2 0  9995
2 69287  51.8662 115.8285 0005762 112.2172 202.6743 15.37219019  1854
KUIPER-00605            
1 69288U 26118X   26155.25004630  .00040788  00000+0  11216-2 0  9999
2 69288  51.8652 115.8486 0007796 117.4466 187.8872 15.36768195  1691
KUIPER-00606            
1 69289U 26118Y   26155.25004630  .00041509  00000+0  11167-2 0  9997
2 69289  51.8686 115.8161 0004864 104.8669 214.5576 15.37457463  1544
KUIPER-00607            
1 69290U 26118Z   26155.25004630  .00041052  00000+0  11157-2 0  9991
2 69290  51.8671 115.8305 0006568 110.7778 202.5983 15.37136736  1502
KUIPER-00608            
1 69291U 26118AA  26155.25004630  .00045182  00000+0  12651-2 0  9990
2 69291  51.8595 115.8701 0009444 132.6700 163.2088 15.36143528  1473
